LEMUR-1                 
1 40044U 14033AL  26062.84297861  .00003831  00000+0  44816-3 0  9994
2 40044  97.7702 215.1128 0049802  64.6774 295.9588 14.84762727629835
LEMUR-2-GREENBERG       
1 42837U 17042N   26062.50201638  .00021315  00000+0  78816-3 0  9993
2 42837  97.3762 243.9025 0009520  24.9743 335.1955 15.27683252472230
LEMUR-2-ANDIS           
1 42838U 17042P   26062.93632389  .00032145  00000+0  10969-2 0  9999
2 42838  97.3649 244.2171 0009398  23.7111 336.4561 15.30228421472335
LEMUR-2-MONSON          
1 42839U 17042Q   26062.55600201  .00020504  00000+0  82900-3 0  9997
2 42839  97.4019 244.0648 0006940  14.2534 345.8898 15.24736791472052
LEMUR-2-FURIAUS         
1 42840U 17042R   26062.92907005  .00033757  00000+0  13141-2 0  9996
2 42840  97.3734 242.5471 0007570  77.7896 282.4189 15.25897016472136
LEMUR-2-PETERG          
1 42841U 17042S   26062.92126877  .00029369  00000+0  10322-2 0  9999
2 42841  97.3964 248.1268 0003913   1.4951 358.6300 15.29320384472326
LEMUR-2-DEMBITZ         
1 42842U 17042T   26062.44537053  .00022797  00000+0  86975-3 0  9995
2 42842  97.3793 244.9641 0007267  37.6449 322.5297 15.26651527472198
LEMUR-2-ZACHARY         
1 42845U 17042W   26062.94081698  .00061885  00000+0  14707-2 0  9996
2 42845  97.3650 252.9815 0003709  38.5404 321.6107 15.41446326472942
LEMUR-2-JIN-LUEN        
1 43182U 18014C   26062.76427398  .00246083  00000+0  15420-2 0  9990
2 43182  97.5453 352.5018 0001795 110.9160 249.2297 15.76091353444532
LEMUR-2-KADI            
1 43184U 18014E   26062.78071829  .00113858  00000+0  12509-2 0  9996
2 43184  97.4721 347.1131 0000983  51.5673 308.5673 15.62818157444467
LEMUR-2-AMANDA-SVANTE   
1 48269U 21034B   26062.75255510  .00036715  00000+0  13404-2 0  9990
2 48269  97.5846 138.7302 0002121 224.4543 135.6526 15.28030596264924
LEMUR-2-SPECIAL-K       
1 48273U 21034F   26062.75728630  .00086475  00000+0  18592-2 0  9994
2 48273  97.5729 143.8173 0001440 223.4437 136.6697 15.44342263265326
LEMUR-2-EMBRIONOVIS     
1 56970U 23084AQ  26062.80252949  .00011089  00000+0  33363-3 0  9998
2 56970  97.6119 203.2954 0008605 335.5796  24.5037 15.34518682151500
LEMUR-2-MANO            
1 57390U 23100E   26062.60656164  .00155538  00000+0  19742-2 0  9991
2 57390  99.4553  83.1322 0002403  57.0460 303.1020 15.58879848145531
LEMUR-2-DEVERILL-M-T    
1 57391U 23100F   26062.52100796  .00033983  00000+0  10212-2 0  9990
2 57391  99.4572  71.2312 0008700  46.5642 313.6316 15.34317768145010
LEMUR-2-BASS            
1 58259U 23174D   26062.78061340  .00023463  00000+0  59824-3 0  9999
2 58259  97.3896 146.2896 0007996 182.2361 177.8850 15.39499792129122
